ONEWEB-0136             
1 47282U 20100AA  24325.81182776 -.00000410  00000+0 -11745-2 0  9998
2 47282  87.8863 104.8184 0001095  82.7172 277.4081 13.12444624189450
ONEWEB-0137             
1 47283U 20100AB  24325.84590088  .00000500  00000+0  13543-2 0  9997
2 47283  87.8858 104.8290 0001514 103.9799 256.1498 13.12443004189367
ONEWEB-0138             
1 47284U 20100AC  24325.36737513  .00000108  00000+0  26410-3 0  9993
2 47284  87.8858 104.9365 0001413  96.2081 263.9209 13.12445282189386
ONEWEB-0139             
1 47285U 20100AD  24324.41536111 -.00000252  00000+0 -73508-3 0  9992
2 47285  87.8861 105.1041 0001474  96.7463 263.3833 13.12443620189337
ONEWEB-0140             
1 47286U 20100AE  24325.81833030 -.00000183  00000+0 -54413-3 0  9995
2 47286  87.8855 104.8225 0001428  94.0717 266.0575 13.12442730189472
ONEWEB-0141             
1 47287U 20100AF  24325.78735744 -.00000050  00000+0 -17460-3 0  9999
2 47287  87.8860 104.8427 0001586 103.6924 256.4381 13.12438904189460
ONEWEB-0142             
1 47288U 20100AG  24325.83212207  .00000209  00000+0  54661-3 0  9998
2 47288  87.8859 104.8147 0001325 105.2332 254.8943 13.12444321189466
ONEWEB-0143             
1 47289U 20100AH  24324.41360754 -.00000122  00000+0 -37516-3 0  9999
2 47289  87.8862 105.1199 0001538  97.0613 263.0690 13.12441699189251
